OBJECT_NAME,OBJECT_ID,EPOCH,MEAN_MOTION,ECCENTRICITY,INCLINATION,RA_OF_ASC_NODE,ARG_OF_PERICENTER,MEAN_ANOMALY,EPHEMERIS_TYPE,CLASSIFICATION_TYPE,NORAD_CAT_ID,ELEMENT_SET_NO,REV_AT_EPOCH,BSTAR,MEAN_MOTION_DOT,MEAN_MOTION_DDOT
ARCTIC WEATHER SATELLITE,2024-149CD,2026-07-02T11:12:51.017760,14.89809395,.0003551,97.6797,253.4958,74.9350,285.2260,0,U,60543,999,10157,.13084E-3,.1202E-4,0
CAPELLA-15 (ACADIA-5),2024-149CE,2026-07-02T19:27:09.484416,14.92416006,.00038216,97.6766,256.3233,31.0112,329.1333,0,U,60544,999,10218,.55795159E-3,.5662E-4,0
HAWK-10B,2024-149CF,2026-07-02T16:21:29.117664,14.96559258,.00062109,97.6810,258.6661,53.3259,306.8533,0,U,60545,999,10230,.18934084E-3,.2097E-4,0
ICEYE-X39,2024-149CG,2026-07-02T05:17:20.512320,14.99990046,.0006718,97.6767,260.0399,80.4764,279.7218,0,U,60546,999,10237,.35634E-3,.4373E-4,0
UMBRA-10,2024-149CH,2026-07-02T19:38:52.747584,15.18521663,.0000766,97.6980,271.3251,176.3276,183.7963,0,U,60547,999,10310,.91503429E-3,.18849E-3,0
ICEYE-X33,2024-149CJ,2026-07-02T04:04:08.472000,15.00850601,.0001893,97.7312,262.2259,44.8492,315.2885,0,U,60548,999,10245,.42739E-3,.5375E-4,0
ICEYE-X40,2024-149CK,2026-07-02T11:10:53.690016,14.97992686,.0005101,97.6800,259.7166,36.2399,323.9168,0,U,60549,999,10236,.16662E-3,.1909E-4,0
SATELIOT_1,2024-149CL,2026-07-02T15:44:45.193632,14.98127882,.00071674,97.6743,259.2982,31.0940,329.0706,0,U,60550,999,10238,.16493096E-3,.1896E-4,0
BRO-14,2024-149CM,2026-07-02T10:38:35.028672,14.96216801,.0007962,97.6874,258.9472,55.0220,305.1748,0,U,60551,999,10227,.11676E-3,.126E-4,0
SATELIOT_3,2024-149CN,2026-07-02T03:56:52.174464,14.98121397,.00061812,97.6826,259.6179,51.6538,308.5239,0,U,60552,999,10232,.29551884E-3,.3443E-4,0
BRO-15,2024-149CP,2026-07-02T11:49:51.586752,14.96211052,.0009007,97.6799,258.5831,46.8682,313.3292,0,U,60553,999,10229,.36072E-3,.4014E-4,0
UM5-RIBAT,2024-149CQ,2026-07-02T16:05:17.176416,15.01163223,.00021951,97.6620,261.2615,35.3399,324.7971,0,U,60554,999,10251,.29631607E-3,.3739E-4,0
UM5-EOSAT,2024-149CR,2026-07-02T02:22:13.432512,15.01648607,.00091624,97.6756,261.6636,71.3271,288.8947,0,U,60555,999,10245,.36258972E-3,.4652E-4,0
LASARSAT,2024-247Q,2026-07-02T16:03:49.146048,15.47293079,.00065854,44.9722,175.1548,71.8885,288.2722,0,U,62391,999,8571,.63606968E-3,.32981E-3,0
CROCUBE,2024-247T,2026-07-02T06:15:31.098240,15.49290769,.0006479,44.9691,174.5342,75.1846,284.9762,0,U,62394,999,8568,.78103E-3,.43599E-3,0
TEVEL2-4,2025-052D,2026-07-02T16:45:45.844128,15.35166142,.00045764,97.3884,80.1195,74.9021,285.2729,0,U,63213,999,7249,.58950445E-3,.20076E-3,0
TEVEL2-5,2025-052E,2026-07-02T15:43:58.434816,15.34983167,.00045622,97.3882,80.0199,76.4185,283.7567,0,U,63214,999,7248,.59164841E-3,.20032E-3,0
TEVEL2-6,2025-052F,2026-07-02T05:05:06.475200,15.34930714,.0004421,97.3892,79.5600,78.1313,282.0426,0,U,63215,999,7241,.63291E-3,.21402E-3,0
TEVEL2-1,2025-052H,2026-07-02T10:36:17.123040,15.34387675,.000494,97.3860,79.3967,84.7539,275.4267,0,U,63217,999,7243,.64322E-3,.21382E-3,0
TEVEL2-3,2025-052J,2026-07-02T05:46:01.708320,15.34438788,.0004748,97.3861,79.2186,86.3332,273.8453,0,U,63218,999,7240,.63306E-3,.21076E-3,0
TEVEL2-2,2025-052K,2026-07-02T16:52:13.936512,15.34405681,.00049483,97.3858,79.6604,84.6363,275.5445,0,U,63219,999,7247,.57850122E-3,.19229E-3,0
TEVEL2-9,2025-052AD,2026-07-02T10:32:44.205792,15.32374933,.0008264,97.3923,78.7387,91.0413,269.1776,0,U,63237,999,7236,.6112E-3,.19073E-3,0
TEVEL2-7,2025-052AE,2026-07-02T16:18:05.867712,15.32073469,.00083667,97.3925,78.8874,90.4399,269.7802,0,U,63238,999,7239,.54710859E-3,.169E-3,0
TEVEL2-8,2025-052AF,2026-07-02T16:30:11.835072,15.32059240,.00083995,97.3922,78.8721,90.8583,269.3621,0,U,63239,999,7239,.54458028E-3,.16814E-3,0
FORESAIL-1 PRIME,2025-276DS,2026-07-02T16:15:08.824608,15.18841293,.0003672,97.4196,256.6654,71.4319,288.7315,0,U,66778,999,3275,.2875553E-3,.5924E-4,0
