ARCTIC WEATHER SATELLITE
1 60543U 24149CD  26183.46725715  .00001202  00000+0  13084-3 0  9998
2 60543  97.6797 253.4958 0003551  74.9350 285.2260 14.89809395101578
CAPELLA-15 (ACADIA-5)   
1 60544U 24149CE  26183.81052644  .00005662  00000+0  55795-3 0  9991
2 60544  97.6766 256.3233 0003821  31.0112 329.1333 14.92416006102187
HAWK-10B                
1 60545U 24149CF  26183.68158701  .00002097  00000+0  18934-3 0  9991
2 60545  97.6810 258.6661 0006210  53.3259 306.8533 14.96559258102301
ICEYE-X39               
1 60546U 24149CG  26183.22037630  .00004373  00000+0  35634-3 0  9994
2 60546  97.6767 260.0399 0006718  80.4764 279.7218 14.99990046102375
UMBRA-10                
1 60547U 24149CH  26183.81866606  .00018849  00000+0  91503-3 0  9993
2 60547  97.6980 271.3251 0000766 176.3276 183.7963 15.18521663103105
ICEYE-X33               
1 60548U 24149CJ  26183.16954250  .00005375  00000+0  42739-3 0  9992
2 60548  97.7312 262.2259 0001893  44.8492 315.2885 15.00850601102454
ICEYE-X40               
1 60549U 24149CK  26183.46589919  .00001909  00000+0  16662-3 0  9997
2 60549  97.6800 259.7166 0005101  36.2399 323.9168 14.97992686102366
SATELIOT_1              
1 60550U 24149CL  26183.65607863  .00001896  00000+0  16493-3 0  9996
2 60550  97.6743 259.2982 0007167  31.0940 329.0706 14.98127882102380
BRO-14                  
1 60551U 24149CM  26183.44346098  .00001260  00000+0  11676-3 0  9997
2 60551  97.6874 258.9472 0007962  55.0220 305.1748 14.96216801102273
SATELIOT_3              
1 60552U 24149CN  26183.16449276  .00003443  00000+0  29552-3 0  9996
2 60552  97.6826 259.6179 0006181  51.6538 308.5239 14.98121397102324
BRO-15                  
1 60553U 24149CP  26183.49295818  .00004014  00000+0  36072-3 0  9994
2 60553  97.6799 258.5831 0009007  46.8682 313.3292 14.96211052102298
UM5-RIBAT               
1 60554U 24149CQ  26183.67033769  .00003739  00000+0  29632-3 0  9997
2 60554  97.6620 261.2615 0002195  35.3399 324.7971 15.01163223102510
UM5-EOSAT               
1 60555U 24149CR  26183.09876658  .00004652  00000+0  36259-3 0  9994
2 60555  97.6756 261.6636 0009162  71.3271 288.8947 15.01648607102458
LASARSAT                
1 62391U 24247Q   26183.66931882  .00032981  00000+0  63607-3 0  9990
2 62391  44.9722 175.1548 0006585  71.8885 288.2722 15.47293079 85712
CROCUBE                 
1 62394U 24247T   26183.26077660  .00043599  00000+0  78103-3 0  9998
2 62394  44.9691 174.5342 0006479  75.1846 284.9762 15.49290769 85689
TEVEL2-4                
1 63213U 25052D   26183.69844727  .00020076  00000+0  58950-3 0  9990
2 63213  97.3884  80.1195 0004576  74.9021 285.2729 15.35166142 72496
TEVEL2-5                
1 63214U 25052E   26183.65553744  .00020032  00000+0  59165-3 0  9994
2 63214  97.3882  80.0199 0004562  76.4185 283.7567 15.34983167 72486
TEVEL2-6                
1 63215U 25052F   26183.21188050  .00021402  00000+0  63291-3 0  9998
2 63215  97.3892  79.5600 0004421  78.1313 282.0426 15.34930714 72413
TEVEL2-1                
1 63217U 25052H   26183.44186485  .00021382  00000+0  64322-3 0  9998
2 63217  97.3860  79.3967 0004940  84.7539 275.4267 15.34387675 72436
TEVEL2-3                
1 63218U 25052J   26183.24029755  .00021076  00000+0  63306-3 0  9994
2 63218  97.3861  79.2186 0004748  86.3332 273.8453 15.34438788 72403
TEVEL2-2                
1 63219U 25052K   26183.70293908  .00019229  00000+0  57850-3 0  9993
2 63219  97.3858  79.6604 0004948  84.6363 275.5445 15.34405681 72479
TEVEL2-9                
1 63237U 25052AD  26183.43940053  .00019073  00000+0  61120-3 0  9995
2 63237  97.3923  78.7387 0008264  91.0413 269.1776 15.32374933 72360
TEVEL2-7                
1 63238U 25052AE  26183.67923458  .00016900  00000+0  54711-3 0  9996
2 63238  97.3925  78.8874 0008366  90.4399 269.7802 15.32073469 72393
TEVEL2-8                
1 63239U 25052AF  26183.68763698  .00016814  00000+0  54458-3 0  9998
2 63239  97.3922  78.8721 0008399  90.8583 269.3621 15.32059240 72393
FORESAIL-1 PRIME        
1 66778U 25276DS  26183.67718547  .00005924  00000+0  28756-3 0  9991
2 66778  97.4196 256.6654 0003672  71.4319 288.7315 15.18841293 32752
